OBJECT_NAME,OBJECT_ID,EPOCH,MEAN_MOTION,ECCENTRICITY,INCLINATION,RA_OF_ASC_NODE,ARG_OF_PERICENTER,MEAN_ANOMALY,EPHEMERIS_TYPE,CLASSIFICATION_TYPE,NORAD_CAT_ID,ELEMENT_SET_NO,REV_AT_EPOCH,BSTAR,MEAN_MOTION_DOT,MEAN_MOTION_DDOT
LEMUR-2-FINNIAN,2025-276DX,2026-06-11T16:16:31.393632,15.00307767,.0008739,97.5274,233.8450,105.6986,254.5203,0,U,66782,999,1917,.51108E-3,.6356E-4,0
LEMUR-2-STARLIGHT,2025-276DY,2026-06-11T16:42:43.778592,14.98986446,.0015288,97.5278,233.5221,143.3687,216.8584,0,U,66783,999,2937,.41006E-3,.4922E-4,0
LEMUR-2-TARTIFLETTE,2025-276DZ,2026-06-11T16:40:41.634912,14.99015288,.0013991,97.5282,233.5264,149.5243,210.6797,0,U,66784,999,2937,.47318E-3,.5691E-4,0
LEMUR-2-VUKASIN,2025-276EA,2026-06-11T03:50:03.632928,15.00300144,.00063188,97.5314,233.2915,138.3619,221.8087,0,U,66785,999,2924,.39868939E-3,.4942E-4,0
LEMUR-2-HOTSPUR-TOM,2025-276EB,2026-06-11T03:40:20.284320,14.98886330,.00154495,97.5266,232.9859,145.9165,214.3054,0,U,66786,999,2922,.49163735E-3,.5898E-4,0
LEMUR-2-MYRA,2025-276EC,2026-06-11T17:23:00.523104,15.00167643,.0015938,97.5223,233.7848,159.5516,200.6349,0,U,66787,999,2939,.49717E-3,.617E-4,0
LEMUR-2 FIKRETDENGIZ,2026-004A,2026-06-11T13:17:51.787104,14.88285645,.0009639,97.8010,161.1988,148.9344,211.2445,0,U,67363,999,2244,.41627E-3,.3796E-4,0
TWILIGHT-1 OBJECT B,2026-004B,2026-06-10T23:18:03.203424,14.87680566,.00095476,97.8060,160.6426,142.2653,217.9235,0,U,67364,999,2236,.17945055E-3,.1581E-4,0
LEMUR-2-MARIO-SOUSA,2026-004C,2026-06-11T14:32:05.706240,14.88469447,.0009265,97.7987,161.2458,149.4635,210.7122,0,U,67365,999,2246,.47746E-3,.4383E-4,0
LEMUR-2-SONNENBLUME,2026-004E,2026-06-11T12:51:56.135232,14.88286937,.0008729,97.7981,161.1641,151.5281,208.6414,0,U,67367,999,2245,.30107E-3,.273E-4,0
LEMUR-2-WOBLER,2026-004F,2026-06-11T14:20:26.064096,14.88479015,.0009178,97.8033,161.3411,141.4168,218.7707,0,U,67368,999,2246,.39578E-3,.3624E-4,0
LEMUR-2-GRAM-E-SUE,2026-004H,2026-06-11T12:29:56.719104,14.88446047,.0007853,97.7963,161.1642,152.2002,207.9636,0,U,67370,999,2245,.22586E-3,.2042E-4,0
LEMUR-2-KATIE,2026-004AA,2026-06-11T13:56:55.720608,14.90014268,.0004725,97.8031,161.6644,104.7192,255.4549,0,U,67387,999,2247,.34742E-3,.3297E-4,0
LEMUR-2-HCS-BAZUS,2026-004AB,2026-06-11T13:55:38.919648,14.90016852,.0004283,97.8017,161.6451,100.2869,259.8832,0,U,67388,999,2247,.44197E-3,.421E-4,0
